IRIDIUM 57              
1 25273U 98019B   24131.91608707  .00000962  00000+0  32990-3 0  9997
2 25273  86.3925 313.7442 0002150  89.0489 271.0954 14.35189399367077
IRIDIUM 63              
1 25286U 98021B   24131.88436028  .00001186  00000+0  40381-3 0  9997
2 25286  86.3987 250.6315 0002285  97.7050 262.4406 14.35735785366101
IRIDIUM 69              
1 25319U 98026A   24131.85391762  .00001546  00000+0  48535-3 0  9990
2 25319  86.3958 265.1504 0000252 229.2580 130.8597 14.39955250365146
IRIDIUM 71              
1 25320U 98026B   24131.86209146  .00001300  00000+0  40463-3 0  9997
2 25320  86.3964 259.9129 0002142  33.9670 326.1666 14.40272663365913
IRIDIUM 73              
1 25344U 98032C   24131.63607937  .00001290  00000+0  32467-3 0  9998
2 25344  86.4471 217.5017 0001673  95.8233 264.3162 14.50491552372181
IRIDIUM 82              
1 25467U 98051A   24131.89149935  .00024343  00000+0  12585-2 0  9994
2 25467  86.3711 303.4594 0128994 358.7839   1.3063 15.09097182362866
IRIDIUM 2               
1 25527U 98066A   24131.73506692  .00206811  00000+0  14247-2 0  9996
2 25527  85.5022 327.6289 0003176 118.6635 241.4956 15.74017791402008
